[{"OBJECT_NAME":"JILIN-1 05","OBJECT_ID":"2017-074B","EPOCH":"2026-03-09T21:56:30.612480","MEAN_MOTION":15.3245271,"ECCENTRICITY":0.00045948,"INCLINATION":97.4781,"RA_OF_ASC_NODE":173.8936,"ARG_OF_PERICENTER":206.4038,"MEAN_ANOMALY":153.6971,"EPHEMERIS_TYPE":0,"CLASSIFICATION_TYPE":"U","NORAD_CAT_ID":43023,"ELEMENT_SET_NO":999,"REV_AT_EPOCH":45879,"BSTAR":0.00026108793,"MEAN_MOTION_DOT":8.104e-5,"MEAN_MOTION_DDOT":0},{"OBJECT_NAME":"STARLINK-34196","OBJECT_ID":"2025-189B","EPOCH":"2026-03-09T15:38:19.592160","MEAN_MOTION":15.3017852,"ECCENTRICITY":0.00011134,"INCLINATION":53.1598,"RA_OF_ASC_NODE":206.7304,"ARG_OF_PERICENTER":49.2578,"MEAN_ANOMALY":310.8519,"EPHEMERIS_TYPE":0,"CLASSIFICATION_TYPE":"U","NORAD_CAT_ID":65324,"ELEMENT_SET_NO":999,"REV_AT_EPOCH":3105,"BSTAR":0.00042843396,"MEAN_MOTION_DOT":0.00012343,"MEAN_MOTION_DDOT":0}]
